[
    {
        "Altitude(m)": 708225.1229062857,
        "Argument of Periapsis(deg)": 0.0034170363559881197,
        "Eccentricity": 0.0,
        "Inclination(deg)": 45.0,
        "Latitude(deg)": -20.378456349515414,
        "Longitude(deg)": 93.10606024016091,
        "Mean Anomaly(deg)": -29.267335005755793,
        "RAAN(deg)": 214.99677441756256,
        "Satellite Name": "Constellation 1 966",
        "Satellite Number": 966,
        "Semi-Major Axis(m)": 7083131.272910544,
        "Time(s)": 57
    },
    {
        "Altitude(m)": 708211.9371612767,
        "Argument of Periapsis(deg)": 0.003476984362233526,
        "Eccentricity": 0.0,
        "Inclination(deg)": 45.0,
        "Latitude(deg)": -20.33838182851133,
        "Longitude(deg)": 93.15061837879661,
        "Mean Anomaly(deg)": -29.206633865505932,
        "RAAN(deg)": 214.99671782839698,
        "Satellite Name": "Constellation 1 966",
        "Satellite Number": 966,
        "Semi-Major Axis(m)": 7083131.272910544,
        "Time(s)": 58
    },
    {
        "Altitude(m)": 708198.7592052723,
        "Argument of Periapsis(deg)": 0.003536932368478932,
        "Eccentricity": 0.0,
        "Inclination(deg)": 45.0,
        "Latitude(deg)": -20.29829348898521,
        "Longitude(deg)": 93.1951513959199,
        "Mean Anomaly(deg)": -29.145932725255967,
        "RAAN(deg)": 214.99666123923143,
        "Satellite Name": "Constellation 1 966",
        "Satellite Number": 966,
        "Semi-Major Axis(m)": 7083131.272910544,
        "Time(s)": 59
    },
    {
        "Altitude(m)": 708185.5890811739,
        "Argument of Periapsis(deg)": 0.003596880374724337,
        "Eccentricity": 0.0,
        "Inclination(deg)": 45.0,
        "Latitude(deg)": -20.258191366955273,
        "Longitude(deg)": 93.23965968574136,
        "Mean Anomaly(deg)": -29.08523158500611,
        "RAAN(deg)": 214.99660465006582,
        "Satellite Name": "Constellation 1 966",
        "Satellite Number": 966,
        "Semi-Major Axis(m)": 7083131.272910544,
        "Time(s)": 60
    },
    {
        "Altitude(m)": 708172.4268318411,
        "Argument of Periapsis(deg)": 0.0036568283809697427,
        "Eccentricity": 0.0,
        "Inclination(deg)": 45.0,
        "Latitude(deg)": -20.218075498390988,
        "Longitude(deg)": 93.28414313815443,
        "Mean Anomaly(deg)": -29.02453044475615,
        "RAAN(deg)": 214.99654806090027,
        "Satellite Name": "Constellation 1 966",
        "Satellite Number": 966,
        "Semi-Major Axis(m)": 7083131.272910544,
        "Time(s)": 61
    },
    {
        "Altitude(m)": 708159.2725000796,
        "Argument of Periapsis(deg)": 0.003716776387215149,
        "Eccentricity": 0.0,
        "Inclination(deg)": 45.0,
        "Latitude(deg)": -20.177945919213528,
        "Longitude(deg)": 93.32860181112243,
        "Mean Anomaly(deg)": -28.963829304506312,
        "RAAN(deg)": 214.99649147173471,
        "Satellite Name": "Constellation 1 966",
        "Satellite Number": 966,
        "Semi-Major Axis(m)": 7083131.272910544,
        "Time(s)": 62
    },
    {
        "Altitude(m)": 708146.1261286625,
        "Argument of Periapsis(deg)": 0.003776724393460554,
        "Eccentricity": 0.0,
        "Inclination(deg)": 45.0,
        "Latitude(deg)": -20.137802665295332,
        "Longitude(deg)": 93.37303576258218,
        "Mean Anomaly(deg)": -28.903128164256323,
        "RAAN(deg)": 214.99643488256913,
        "Satellite Name": "Constellation 1 966",
        "Satellite Number": 966,
        "Semi-Major Axis(m)": 7083131.272910544,
        "Time(s)": 63
    },
    {
        "Altitude(m)": 708132.9877603119,
        "Argument of Periapsis(deg)": 0.003836672399705959,
        "Eccentricity": 0.0,
        "Inclination(deg)": 45.0,
        "Latitude(deg)": -20.09764577246093,
        "Longitude(deg)": 93.4174450504432,
        "Mean Anomaly(deg)": -28.84242702400646,
        "RAAN(deg)": 214.99637829340358,
        "Satellite Name": "Constellation 1 966",
        "Satellite Number": 966,
        "Semi-Major Axis(m)": 7083131.272910544,
        "Time(s)": 64
    },
    {
        "Altitude(m)": 708119.8574377043,
        "Argument of Periapsis(deg)": 0.003896620405951365,
        "Eccentricity": 0.0,
        "Inclination(deg)": 45.0,
        "Latitude(deg)": -20.05747527648638,
        "Longitude(deg)": 93.46182973258826,
        "Mean Anomaly(deg)": -28.781725883756625,
        "RAAN(deg)": 214.99632170423803,
        "Satellite Name": "Constellation 1 966",
        "Satellite Number": 966,
        "Semi-Major Axis(m)": 7083131.272910544,
        "Time(s)": 65
    },
    {
        "Altitude(m)": 708106.7352034724,
        "Argument of Periapsis(deg)": 0.003956568412196771,
        "Eccentricity": 0.0,
        "Inclination(deg)": 45.0,
        "Latitude(deg)": -20.017291213099732,
        "Longitude(deg)": 93.50618986687313,
        "Mean Anomaly(deg)": -28.721024743506636,
        "RAAN(deg)": 214.99626511507242,
        "Satellite Name": "Constellation 1 966",
        "Satellite Number": 966,
        "Semi-Major Axis(m)": 7083131.272910544,
        "Time(s)": 66
    },
    {
        "Altitude(m)": 708093.6211002071,
        "Argument of Periapsis(deg)": 0.004016516418442176,
        "Eccentricity": 0.0,
        "Inclination(deg)": 45.0,
        "Latitude(deg)": -19.977093617981314,
        "Longitude(deg)": 93.5505253430291,
        "Mean Anomaly(deg)": -28.660323603256803,
        "RAAN(deg)": 214.99620852590687,
        "Satellite Name": "Constellation 1 966",
        "Satellite Number": 966,
        "Semi-Major Axis(m)": 7083131.272910544,
        "Time(s)": 67
    },
    {
        "Altitude(m)": 708080.5151704418,
        "Argument of Periapsis(deg)": 0.004076464424687581,
        "Eccentricity": 0.0,
        "Inclination(deg)": 45.0,
        "Latitude(deg)": -19.936882526763334,
        "Longitude(deg)": 93.59483655505132,
        "Mean Anomaly(deg)": -28.599622463006916,
        "RAAN(deg)": 214.99615193674128,
        "Satellite Name": "Constellation 1 966",
        "Satellite Number": 966,
        "Semi-Major Axis(m)": 7083131.272910544,
        "Time(s)": 68
    },
    {
        "Altitude(m)": 708067.4174566782,
        "Argument of Periapsis(deg)": 0.004136412430932987,
        "Eccentricity": 0.0,
        "Inclination(deg)": 45.0,
        "Latitude(deg)": -19.896657975030408,
        "Longitude(deg)": 93.63912339261684,
        "Mean Anomaly(deg)": -28.53892132275698,
        "RAAN(deg)": 214.99609534757573,
        "Satellite Name": "Constellation 1 966",
        "Satellite Number": 966,
        "Semi-Major Axis(m)": 7083131.272910544,
        "Time(s)": 69
    },
    {
        "Altitude(m)": 708054.3280013719,
        "Argument of Periapsis(deg)": 0.004196360437178394,
        "Eccentricity": 0.0,
        "Inclination(deg)": 45.0,
        "Latitude(deg)": -19.856419998319588,
        "Longitude(deg)": 93.68338591347204,
        "Mean Anomaly(deg)": -28.478220182507016,
        "RAAN(deg)": 214.99603875841018,
        "Satellite Name": "Constellation 1 966",
        "Satellite Number": 966,
        "Semi-Major Axis(m)": 7083131.272910544,
        "Time(s)": 70
    },
    {
        "Altitude(m)": 708041.2468469167,
        "Argument of Periapsis(deg)": 0.004256308443423799,
        "Eccentricity": 0.0,
        "Inclination(deg)": 45.0,
        "Latitude(deg)": -19.816168632120476,
        "Longitude(deg)": 93.72762417533588,
        "Mean Anomaly(deg)": -28.417519042257155,
        "RAAN(deg)": 214.99598216924457,
        "Satellite Name": "Constellation 1 966",
        "Satellite Number": 966,
        "Semi-Major Axis(m)": 7083131.272910544,
        "Time(s)": 71
    },
    {
        "Altitude(m)": 708028.1740356793,
        "Argument of Periapsis(deg)": 0.004316256449669204,
        "Eccentricity": 0.0,
        "Inclination(deg)": 45.0,
        "Latitude(deg)": -19.775903911875208,
        "Longitude(deg)": 93.77183823589984,
        "Mean Anomaly(deg)": -28.35681790200729,
        "RAAN(deg)": 214.99592558007902,
        "Satellite Name": "Constellation 1 966",
        "Satellite Number": 966,
        "Semi-Major Axis(m)": 7083131.272910544,
        "Time(s)": 72
    },
    {
        "Altitude(m)": 708015.1096099642,
        "Argument of Periapsis(deg)": 0.00437620445591461,
        "Eccentricity": 0.0,
        "Inclination(deg)": 45.0,
        "Latitude(deg)": -19.7356258729786,
        "Longitude(deg)": 93.8160281528278,
        "Mean Anomaly(deg)": -28.29611676175733,
        "RAAN(deg)": 214.99586899091344,
        "Satellite Name": "Constellation 1 966",
        "Satellite Number": 966,
        "Semi-Major Axis(m)": 7083131.272910544,
        "Time(s)": 73
    },
    {
        "Altitude(m)": 708002.0536120451,
        "Argument of Periapsis(deg)": 0.004436152462160016,
        "Eccentricity": 0.0,
        "Inclination(deg)": 45.0,
        "Latitude(deg)": -19.695334550778608,
        "Longitude(deg)": 93.8601938156587,
        "Mean Anomaly(deg)": -28.23541562150757,
        "RAAN(deg)": 214.99581240174788,
        "Satellite Name": "Constellation 1 966",
        "Satellite Number": 966,
        "Semi-Major Axis(m)": 7083131.272910544,
        "Time(s)": 74
    },
    {
        "Altitude(m)": 707989.0060841327,
        "Argument of Periapsis(deg)": 0.0044961004684054215,
        "Eccentricity": 0.0,
        "Inclination(deg)": 45.0,
        "Latitude(deg)": -19.655029980575765,
        "Longitude(deg)": 93.90433561819503,
        "Mean Anomaly(deg)": -28.17471448125761,
        "RAAN(deg)": 214.99575581258227,
        "Satellite Name": "Constellation 1 966",
        "Satellite Number": 966,
        "Semi-Major Axis(m)": 7083131.272910544,
        "Time(s)": 75
    }
]